FENGYUN 1C DEB
1 36141U 99025DRN 15112.12801117  .00005290  00000-0  34128-2 0  9997
2 36141  98.4832 231.4711 0157264  54.1682 307.3971 13.97424454310884
FENGYUN 1C DEB
1 36142U 99025DRP 15111.21503679  .00003954  00000-0  37411-2 0  9992
2 36142  98.3843 105.2234 0237994  11.7492  43.7664 13.69689189368342
FENGYUN 1C DEB
1 36148U 99025DRV 15110.07018787  .00002868  00000-0  26477-2 0  9995
2 36148  98.4129  48.5934 0347524 265.8609 155.5079 13.59297511371243
FENGYUN 1C DEB
1 36149U 99025DRW 15112.89007217  .00004791  00000-0  24753-2 0  9996
2 36149  99.6146 346.2134 0032370 162.8395 197.3878 14.15260359354317
FENGYUN 1C DEB
1 36152U 99025DRZ 15112.30590290  .00002776  00000-0  16753-2 0  9996
2 36152  99.0598 139.3703 0061279   1.8386 358.2996 14.06531071395777
FENGYUN 1C DEB
1 36153U 99025DSA 15112.55890251  .00004564  00000-0  20028-2 0  9991
2 36153  98.8412 148.3680 0046425 272.9441 244.2769 14.23522134316441
FENGYUN 1C DEB
1 36154U 99025DSB 15106.18486260  .00008043  00000-0  58788-2 0  9995
2 36154  97.7102 250.5435 0333432 209.7932 277.5701 13.72844334321702
FENGYUN 1C DEB
1 36155U 99025DSC 15110.75063416  .00004681  00000-0  25011-2 0  9995
2 36155  99.0149  96.8320 0028538 331.5599  28.4014 14.13485710396420
FENGYUN 1C DEB
1 36156U 99025DSD 15111.31778345  .00004063  00000-0  17464-2 0  9990
2 36156  98.8680 144.4568 0052065 271.0041  88.5823 14.24518788334458
FENGYUN 1C DEB
1 36159U 99025DSG 15108.24426387  .00012896  00000-0  13213-2 0  9998
2 36159  99.5424 123.9905 0294225 105.8809 257.7311 14.63580397391783
FENGYUN 1C DEB
1 36160U 99025DSH 15113.10688639  .00001338  00000-0  70928-3 0  9997
2 36160  98.2295 234.5524 0139600 190.0361 169.8018 14.10269446373066
FENGYUN 1C DEB
1 36162U 99025DSK 15113.19759413  .00012956  00000-0  90946-2 0  9996
2 36162  97.6416 231.6514 0338665 162.9930 317.4634 13.74153617370181
FENGYUN 1C DEB
1 36163U 99025DSL 15112.38493211  .00006656  00000-0  36027-2 0  9998
2 36163  99.0987 153.5409 0080845  21.1541  46.7912 14.11171191340901
FENGYUN 1C DEB
1 36166U 99025DSP 15109.35780642  .00001338  00000-0  12789-2 0  9992
2 36166  97.5624 152.9371 0369829   9.7472 351.3195 13.55094006363148
FENGYUN 1C DEB
1 36167U 99025DSQ 15112.02807284  .00004869  00000-0  16928-2 0  9994
2 36167  98.7759 205.9360 0087997 204.3111 155.3910 14.33766566329114
FENGYUN 1C DEB
1 36169U 99025DSS 15112.30441577  .00033677  00000-0  55715-2 0  9992
2 36169  97.9562 292.2801 0144873 264.4920  93.9744 14.63447779388224
FENGYUN 1C DEB
1 36172U 99025DSV 15113.15228308  .00002691  00000-0  22226-2 0  9998
2 36172  98.1746  73.6678 0222423 182.0278 246.7003 13.78913168363546
FENGYUN 1C DEB
1 36173U 99025DSW 15111.66812742  .00000872  00000-0  37263-3 0  9991
2 36173  98.1443 284.5526 0157514  68.0768 293.7071 14.20687881383234
FENGYUN 1C DEB
1 36177U 99025DTA 15110.37885022  .00001790  00000-0  10448-2 0  9998
2 36177  98.9979 160.1484 0043161  74.4672 286.1371 14.09276415331897
FENGYUN 1C DEB
1 36180U 99025DTD 15107.82480586  .00001370  00000-0  59137-3 0  9997
2 36180  98.3827 321.4537 0234009  77.1603 285.5480 14.12268097372389
FENGYUN 1C DEB
1 36181U 99025DTE 15111.56669200  .00025281  00000-0  68821-2 0  9992
2 36181  98.9208 236.2757 0066333 198.4201 161.4586 14.46091372331921
FENGYUN 1C DEB
1 36182U 99025DTF 15111.49146912  .00003953  00000-0  19562-2 0  9995
2 36182  99.0683 209.4111 0025739  33.3534 326.9255 14.17720178327903
FENGYUN 1C DEB
1 36184U 99025DTH 15111.28964385  .00003079  00000-0  21009-2 0  9994
2 36184  98.5594 283.1542 0144380  47.2038  74.7109 13.95575326360668
FENGYUN 1C DEB
1 36186U 99025DTK 15111.06297690  .00006376  00000-0  32501-2 0  9992
2 36186  99.0356 145.7353 0062222  67.2785 323.6291 14.15060429327634
FENGYUN 1C DEB
1 36188U 99025DTM 15111.52554744  .00004937  00000-0  20286-2 0  9999
2 36188  98.8434 139.8823 0081046 239.6755 119.6390 14.25682274328085
FENGYUN 1C DEB
1 36190U 99025DTP 15111.06327733  .00004351  00000-0  20473-2 0  9995
2 36190  98.8945 145.9685 0045630 319.9459  70.0208 14.19927430324466
FENGYUN 1C DEB
1 36194U 99025DTT 15108.67290857  .00027164  00000-0  57805-2 0  9994
2 36194  99.0433 267.7843 0041725 233.0410 136.6811 14.58404194380942
FENGYUN 1C DEB
1 36196U 99025DTV 15111.34770983  .00004857  00000-0  27308-2 0  9996
2 36196  99.0873 163.2215 0044896  71.6771 349.0299 14.10417298372839
FENGYUN 1C DEB
1 36197U 99025DTW 15110.31987476  .00002874  00000-0  16057-2 0  9996
2 36197  99.0134 153.6114 0066658  88.2021 334.5979 14.10481959348240
FENGYUN 1C DEB
1 36198U 99025DTX 15110.96872180  .00003546  00000-0  25574-2 0  9994
2 36198  98.6159 297.3849 0107638 145.8935 214.9205 13.94561344351067
FENGYUN 1C DEB
1 36199U 99025DTY 15111.67416347  .00001065  00000-0  44666-3 0  9991
2 36199  98.7264 181.6151 0095640 300.0921 215.9392 14.25615225384962
FENGYUN 1C DEB
1 36200U 99025DTZ 15111.13073566  .00009761  00000-0  53420-2 0  9995
2 36200  99.4057 237.3403 0075524 201.3961 158.4046 14.10661557346337
FENGYUN 1C DEB
1 36203U 99025DUC 15111.93623994  .00007602  00000-0  17593-2 0  9995
2 36203  99.1053   1.3276 0131330  13.7909  49.2655 14.50247258342471
FENGYUN 1C DEB
1 36204U 99025DUD 15111.27340427  .00003954  00000-0  18797-2 0  9993
2 36204  99.3597 278.3882 0024336  75.1835 285.2033 14.19878595392064
FENGYUN 1C DEB
1 36206U 99025DUF 15111.36471913  .00001591  00000-0  84146-3 0  9997
2 36206  98.8948 172.3993 0032430  17.9499 342.2812 14.14959496381422
FENGYUN 1C DEB
1 36207U 99025DUG 15111.28429188  .00004499  00000-0  35749-2 0  9990
2 36207  98.6215 229.1463 0169768 223.7878 134.9713 13.85183253372146
FENGYUN 1C DEB
1 36211U 99025DUL 15111.38189928  .00001420  00000-0  48147-3 0  9999
2 36211  98.8255 156.8695 0293643 308.3880  49.1249 14.16866671392154
FENGYUN 1C DEB
1 36214U 99025DUP 15111.91654201  .00004454  00000-0  22352-2 0  9991
2 36214  99.0620 163.8487 0055762 311.5495  48.2212 14.16268130372939
FENGYUN 1C DEB
1 36216U 99025DUR 15110.87482791  .00000798  00000-0  43068-3 0  9995
2 36216  98.9681 120.8667 0046084 322.0239 157.3355 14.15096395376798
FENGYUN 1C DEB
1 36218U 99025DUT 15108.37752693  .00003271  00000-0  87768-3 0  9994
2 36218  99.1050 316.4341 0110294  82.2530 279.0907 14.45329773347008
FENGYUN 1C DEB
1 36222U 99025DUX 15110.30147257  .00002963  00000-0  13198-2 0  9991
2 36222  98.8401 145.0504 0059364 277.8605 142.4849 14.22677080399334
FENGYUN 1C DEB
1 36224U 99025DUZ 15112.77919132  .00000307  00000-0  18215-3 0  9991
2 36224  99.0378  93.9347 0117217 146.3396 335.5967 14.11367063308406
FENGYUN 1C DEB
1 36225U 99025DVA 15111.22416931  .00005382  00000-0  12285-2 0  9998
2 36225  98.8722 263.2665 0117287 348.5243 134.4427 14.52046469396735
FENGYUN 1C DEB
1 36226U 99025DVB 15111.76028411  .00003073  00000-0  20926-2 0  9996
2 36226  98.5699 304.3186 0111659 110.3782 250.9411 13.97633404341355
FENGYUN 1C DEB
1 36228U 99025DVD 15113.06117212  .00010139  00000-0  30377-2 0  9993
2 36228  99.3066 329.1649 0140998  38.5979 322.5184 14.37391602337714
FENGYUN 1C DEB
1 36229U 99025DVE 15110.27283742  .00002707  00000-0  20310-2 0  9994
2 36229 100.9151 281.0807 0127617  36.6372  86.5939 13.91846702380224
FENGYUN 1C DEB
1 36230U 99025DVF 15112.93224461  .00002472  00000-0  25714-2 0  9996
2 36230  99.7055 147.9035 0234486  56.6042 305.7297 13.65142731373582
FENGYUN 1C DEB
1 36231U 99025DVG 15109.95154954  .00000167  00000-0  11649-3 0  9996
2 36231  98.8818 159.7138 0061237 221.5069 138.1442 14.10603490308065
FENGYUN 1C DEB
1 36232U 99025DVH 15110.90963810  .00000491  00000-0  28745-3 0  9998
2 36232  98.9205 152.7932 0121191 247.2663 111.5661 14.09329635372695
FENGYUN 1C DEB
1 36234U 99025DVK 15111.43348791  .00000286  00000-0  40980-3 0  9991
2 36234  98.9916 179.4634 0319888 109.2914 254.3048 13.43767713357002
FENGYUN 1C DEB
1 36236U 99025DVM 15107.38108157  .00000344  00000-0  33965-3 0  9992
2 36236  98.8378 321.6974 0153578   4.5465 355.6876 13.79873037335694
FENGYUN 1C DEB
1 36237U 99025DVN 15103.60623357  .00015268  00000-0  36175-2 0  9994
2 36237  98.9328 240.7563 0072833 196.3007 163.5843 14.52492597336389
FENGYUN 1C DEB
1 36238U 99025DVP 15110.10738794  .00000107  00000-0  82759-4 0  9997
2 36238  98.8667 165.6028 0021234 190.6159 199.2639 14.11575614323168
FENGYUN 1C DEB
1 36241U 99025DVS 15111.15151557  .00017901  00000-0  13497-2 0  9994
2 36241  98.2873 182.8818 0235191 296.5667  91.1847 14.83061254332960
FENGYUN 1C DEB
1 36242U 99025DVT 15097.94882100  .00001913  00000-0  12658-2 0  9994
2 36242  98.1487 149.9179 0074531 322.3062  32.6782 14.01254810385688
FENGYUN 1C DEB
1 36243U 99025DVU 15111.82869884  .00016428  00000-0  18605-2 0  9998
2 36243  99.2348 128.1084 0164717 138.4851 222.9003 14.77111851402184
FENGYUN 1C DEB
1 36244U 99025DVV 15113.09275317  .00003481  00000-0  20229-2 0  9992
2 36244  99.0633 167.1893 0062501 107.1743 253.6281 14.08351103371760
FENGYUN 1C DEB
1 36247U 99025DVY 15113.01927905  .00001352  00000-0  46933-3 0  9990
2 36247  98.7094 178.3604 0203081 307.9571  50.3411 14.26391845336397
FENGYUN 1C DEB
1 36248U 99025DVZ 15107.63744582  .00002564  00000-0  20554-2 0  9996
2 36248  98.1622  64.6745 0220187 192.7635 166.7592 13.80811629321683
FENGYUN 1C DEB
1 36254U 99025DWF 15111.82652272  .00004264  00000-0  10157-2 0  9990
2 36254  99.5915 137.0543 0128480 171.4771 188.9520 14.49490587328786
FENGYUN 1C DEB
1 36255U 99025DWG 15110.95524397  .00001935  00000-0  80597-3 0  9998
2 36255  99.4418   8.7825 0075898 112.3766 305.8557 14.26050405346644
FENGYUN 1C DEB
1 36257U 99025DWJ 15112.07166191  .00012698  00000-0  51381-2 0  9995
2 36257  99.0783 218.5442 0028756 138.7638 221.5721 14.27680937323501
FENGYUN 1C DEB
1 36258U 99025DWK 15110.08606779  .00002093  00000-0  32307-3 0  9992
2 36258  99.0493  49.3648 0211562 163.1946 265.1066 14.60715455341137
